$$SOE
2461288.500000000, A.D. 2026-Sep-05 00:00:00.0000, -3.170027299465488E+08, -4.634011741554585E+08, 2.955042643319735E+07,
2461295.500000000, A.D. 2026-Sep-12 00:00:00.0000, -3.094048804730079E+08, -4.664068779757617E+08, 2.967314003422332E+07,
2461302.500000000, A.D. 2026-Sep-19 00:00:00.0000, -3.017217066217519E+08, -4.692840019131590E+08, 2.978767166035122E+07,
2461309.500000000, A.D. 2026-Sep-26 00:00:00.0000, -2.939545291193858E+08, -4.720305111498353E+08, 2.989391092767817E+07,
2461316.500000000, A.D. 2026-Oct-03 00:00:00.0000, -2.861047045958296E+08, -4.746443477711287E+08, 2.999174629344794E+07,
2461323.500000000, A.D. 2026-Oct-10 00:00:00.0000, -2.781736273266773E+08, -4.771234301756928E+08, 3.008106505123854E+07,
2461330.500000000, A.D. 2026-Oct-17 00:00:00.0000, -2.701627310855532E+08, -4.794656525777407E+08, 3.016175332409251E+07,
2461337.500000000, A.D. 2026-Oct-24 00:00:00.0000, -2.620734910855363E+08, -4.816688846264960E+08, 3.023369605178118E+07,
2461344.500000000, A.D. 2026-Oct-31 00:00:00.0000, -2.539074259145654E+08, -4.837309712122579E+08, 3.029677695802870E+07,
2461351.500000000, A.D. 2026-Nov-07 00:00:00.0000, -2.456660991296361E+08, -4.856497323879074E+08, 3.035087847304085E+07,
2461358.500000000, A.D. 2026-Nov-14 00:00:00.0000, -2.373511203129020E+08, -4.874229625214895E+08, 3.039588166587132E+07,
2461365.500000000, A.D. 2026-Nov-21 00:00:00.0000, -2.289641474053723E+08, -4.890484280010391E+08, 3.043166640895703E+07,
2461372.500000000, A.D. 2026-Nov-28 00:00:00.0000, -2.205068913199823E+08, -4.905238665031324E+08, 3.045811162094957E+07,
2461379.500000000, A.D. 2026-Dec-05 00:00:00.0000, -2.119811192185163E+08, -4.918469884861446E+08, 3.047509520276278E+07,
2461386.500000000, A.D. 2026-Dec-12 00:00:00.0000, -2.033886562922462E+08, -4.930154778024497E+08, 3.048249390662959E+07,
2461393.500000000, A.D. 2026-Dec-19 00:00:00.0000, -1.947313879384785E+08, -4.940269914281232E+08, 3.048018331243920E+07,
2461400.500000000, A.D. 2026-Dec-26 00:00:00.0000, -1.860112624802350E+08, -4.948791591833407E+08, 3.046803785404909E+07,
2461407.500000000, A.D. 2027-Jan-02 00:00:00.0000, -1.772302941581857E+08, -4.955695836401330E+08, 3.044593085517424E+07,
2461414.500000000, A.D. 2027-Jan-09 00:00:00.0000, -1.683905662831795E+08, -4.960958402039019E+08, 3.041373456625479E+07,
2461421.500000000, A.D. 2027-Jan-16 00:00:00.0000, -1.594942345199008E+08, -4.964554773673977E+08, 3.037132020027936E+07,
2461428.500000000, A.D. 2027-Jan-23 00:00:00.0000, -1.505435302621628E+08, -4.966460171851600E+08, 3.031855796065077E+07,
2461435.500000000, A.D. 2027-Jan-30 00:00:00.0000, -1.415407639190465E+08, -4.966649560252743E+08, 3.025531704053590E+07,
2461442.500000000, A.D. 2027-Feb-06 00:00:00.0000, -1.324883276942689E+08, -4.965097652681531E+08, 3.018146558309737E+07,
2461449.500000000, A.D. 2027-Feb-13 00:00:00.0000, -1.233886983262119E+08, -4.961778907429734E+08, 3.009687074505869E+07,
2461456.500000000, A.D. 2027-Feb-20 00:00:00.0000, -1.142444421591620E+08, -4.956667517034231E+08, 3.000139901624936E+07,
2461463.500000000, A.D. 2027-Feb-27 00:00:00.0000, -1.050582211557381E+08, -4.949737425681640E+08, 2.989491640493891E+07,
2461470.500000000, A.D. 2027-Mar-06 00:00:00.0000, -9.583279683826382E+07, -4.940962355170006E+08, 2.977728836993489E+07,
2461477.500000000, A.D. 2027-Mar-13 00:00:00.0000, -8.657103376540342E+07, -4.930315819074917E+08, 2.964837981450000E+07,
2461484.500000000, A.D. 2027-Mar-20 00:00:00.0000, -7.727590367899527E+07, -4.917771133608091E+08, 2.950805517819905E+07,
2461491.500000000, A.D. 2027-Mar-27 00:00:00.0000, -6.795049012349689E+07, -4.903301430805814E+08, 2.935617856397191E+07,
2461498.500000000, A.D. 2027-Apr-03 00:00:00.0000, -5.859799333834954E+07, -4.886879674688271E+08, 2.919261387862846E+07,
2461505.500000000, A.D. 2027-Apr-10 00:00:00.0000, -4.922173536425693E+07, -4.868478680347249E+08, 2.901722498390532E+07,
2461512.500000000, A.D. 2027-Apr-17 00:00:00.0000, -3.982516534316652E+07, -4.848071136321841E+08, 2.882987585605910E+07,
2461519.500000000, A.D. 2027-Apr-24 00:00:00.0000, -3.041186493471194E+07, -4.825629631124663E+08, 2.863043074313945E+07,
2461526.500000000, A.D. 2027-May-01 00:00:00.0000, -2.098555355142576E+07, -4.801126683897787E+08, 2.841875429643136E+07,
2461533.500000000, A.D. 2027-May-08 00:00:00.0000, -1.155009310664319E+07, -4.774534771983565E+08, 2.819471171081197E+07,
2461540.500000000, A.D. 2027-May-15 00:00:00.0000, -2.109493772082486E+06, -4.745826346154367E+08, 2.795816909097978E+07,
2461547.500000000, A.D. 2027-May-22 00:00:00.0000, 7.332077692961607E+06, -4.714973859705344E+08, 2.770899397684431E+07,
2461554.500000000, A.D. 2027-May-29 00:00:00.0000, 1.677029040119920E+07, -4.681949826406797E+08, 2.744705560205770E+07,
2461561.500000000, A.D. 2027-Jun-05 00:00:00.0000, 2.620064347674610E+07, -4.646726876348516E+08, 2.717222506260419E+07,
2461568.500000000, A.D. 2027-Jun-12 00:00:00.0000, 3.561845987463351E+07, -4.609277805730183E+08, 2.688437561718011E+07,
2461575.500000000, A.D. 2027-Jun-19 00:00:00.0000, 4.501887955959919E+07, -4.569575630337165E+08, 2.658338307570374E+07,
2461582.500000000, A.D. 2027-Jun-26 00:00:00.0000, 5.439685233670004E+07, -4.527593645723801E+08, 2.626912623143634E+07,
2461589.500000000, A.D. 2027-Jul-03 00:00:00.0000, 6.374713048246002E+07, -4.483305494449756E+08, 2.594148732779974E+07,
2461596.500000000, A.D. 2027-Jul-10 00:00:00.0000, 7.306426123427625E+07, -4.436685240731138E+08, 2.560035255978507E+07,
2461603.500000000, A.D. 2027-Jul-17 00:00:00.0000, 8.234257920042723E+07, -4.387707453370165E+08, 2.524561260615647E+07,
2461610.500000000, A.D. 2027-Jul-24 00:00:00.0000, 9.157619887851216E+07, -4.336347298099265E+08, 2.487716317596197E+07,
2461617.500000000, A.D. 2027-Jul-31 00:00:00.0000, 1.007590077305520E+08, -4.282580637525097E+08, 2.449490555414772E+07,
2461624.500000000, A.D. 2027-Aug-07 00:00:00.0000, 1.098846596564086E+08, -4.226384127720746E+08, 2.409874726219910E+07,
2461631.500000000, A.D. 2027-Aug-14 00:00:00.0000, 1.189465666129872E+08, -4.167735314574687E+08, 2.368860302738392E+07,
2461638.500000000, A.D. 2027-Aug-21 00:00:00.0000, 1.279378890539235E+08, -4.106612764114184E+08, 2.326439573186120E+07,
2461645.500000000, A.D. 2027-Aug-28 00:00:00.0000, 1.368515286867567E+08, -4.042996215362647E+08, 2.282605712821221E+07,
2461652.500000000, A.D. 2027-Sep-04 00:00:00.0000, 1.456801224416381E+08, -3.976866731315743E+08, 2.237352863723078E+07,
2461659.500000000, A.D. 2027-Sep-11 00:00:00.0000, 1.544160363412157E+08, -3.908206855249248E+08, 2.190676230470984E+07,
2461666.500000000, A.D. 2027-Sep-18 00:00:00.0000, 1.630513595010683E+08, -3.837000779440112E+08, 2.142572185439152E+07,
2461673.500000000, A.D. 2027-Sep-25 00:00:00.0000, 1.715778985980369E+08, -3.763234527629734E+08, 2.093038381198496E+07,
2461680.500000000, A.D. 2027-Oct-02 00:00:00.0000, 1.799871730030650E+08, -3.686896151466715E+08, 2.042073869749434E+07,
2461687.500000000, A.D. 2027-Oct-09 00:00:00.0000, 1.882704107366560E+08, -3.607975941428833E+08, 1.989679228477542E+07,
2461694.500000000, A.D. 2027-Oct-16 00:00:00.0000, 1.964185454614051E+08, -3.526466653153362E+08, 1.935856691883899E+07,
2461701.500000000, A.D. 2027-Oct-23 00:00:00.0000, 2.044222149396490E+08, -3.442363749530367E+08, 1.880610286702263E+07,
2461708.500000000, A.D. 2027-Oct-30 00:00:00.0000, 2.122717615158269E+08, -3.355665652659046E+08, 1.823945971963063E+07,
2461715.500000000, A.D. 2027-Nov-06 00:00:00.0000, 2.199572336604965E+08, -3.266373994461175E+08, 1.765871803825414E+07,
2461722.500000000, A.D. 2027-Nov-13 00:00:00.0000, 2.274683868055951E+08, -3.174493886605507E+08, 1.706398126202443E+07,
2461729.500000000, A.D. 2027-Nov-20 00:00:00.0000, 2.347946866035153E+08, -3.080034231265870E+08, 1.645537742315403E+07,
2461736.500000000, A.D. 2027-Nov-27 00:00:00.0000, 2.419253164743730E+08, -2.983008042492444E+08, 1.583306076036452E+07,
2461743.500000000, A.D. 2027-Dec-04 00:00:00.0000, 2.488491876784937E+08, -2.883432768196382E+08, 1.519721348330677E+07,
2461750.500000000, A.D. 2027-Dec-11 00:00:00.0000, 2.555549516370882E+08, -2.781330621179460E+08, 1.454804765018621E+07,
2461757.500000000, A.D. 2027-Dec-18 00:00:00.0000, 2.620310150626445E+08, -2.676728921017259E+08, 1.388580709406632E+07,
2461764.500000000, A.D. 2027-Dec-25 00:00:00.0000, 2.682655583473161E+08, -2.569660444848544E+08, 1.321076937031794E+07,
2461771.500000000, A.D. 2028-Jan-01 00:00:00.0000, 2.742465575495871E+08, -2.460163784536876E+08, 1.252324770708834E+07,
$$EOE